{
    "CCSDS_OMM_VERS": "3.0",
    "COMMENT": "GENERATED VIA SPACE-TRACK.ORG API",
    "CREATION_DATE": "2025-11-23T21:08:43",
    "ORIGINATOR": "18 SPCS",
    "OBJECT_NAME": "GALILEO 5 (261)",
    "OBJECT_ID": "2014-050A",
    "CENTER_NAME": "EARTH",
    "REF_FRAME": "TEME",
    "TIME_SYSTEM": "UTC",
    "MEAN_ELEMENT_THEORY": "SGP4",
    "EPOCH": "2025-11-22T23:38:41.269632",
    "MEAN_MOTION": "1.85519713",
    "ECCENTRICITY": "0.16459823",
    "INCLINATION": "49.0998",
    "RA_OF_ASC_NODE": "281.8687",
    "ARG_OF_PERICENTER": "171.5338",
    "MEAN_ANOMALY": "191.6606",
    "EPHEMERIS_TYPE": "0",
    "CLASSIFICATION_TYPE": "U",
    "NORAD_CAT_ID": "40128",
    "ELEMENT_SET_NO": "999",
    "REV_AT_EPOCH": "7449",
    "BSTAR": "0.00000000000000",
    "MEAN_MOTION_DOT": "-0.00000046",
    "MEAN_MOTION_DDOT": "0.0000000000000",
    "SEMIMAJOR_AXIS": "27977.472",
    "PERIOD": "776.198",
    "APOAPSIS": "26204.379",
    "PERIAPSIS": "16994.294",
    "OBJECT_TYPE": "PAYLOAD",
    "RCS_SIZE": "LARGE",
    "COUNTRY_CODE": "ESA",
    "LAUNCH_DATE": "2014-08-22",
    "SITE": "FRGUI",
    "DECAY_DATE": null,
    "FILE": "4896238",
    "GP_ID": "303332154",
    "TLE_LINE0": "0 GALILEO 5 (261)",
    "TLE_LINE1": "1 40128U 14050A   25326.98519988 -.00000046  00000-0  00000-0 0  9991",
    "TLE_LINE2": "2 40128  49.0998 281.8687 1645982 171.5338 191.6606  1.85519713 74492"
}